X,Y,Name,description,HYPERLINK,DESCRIPTION2,POSTALCODE,KEEPERNAME,TOTALROOMS,ADDRESS,INC_CRC,FMEL_UPD_D,NAME2,DESCRIPTION3,NAME3
103.857271555227,1.31503287812628,Asphodel Inn,,asphoinn@yahoo.com.sg,,218702,Ooi Teck Hin,55,380 Race Course Road (Level 2),2AA2960984B231E6,20200728214024,,,
103.856934787679,1.29800182513386,Atlantis Pods @ Bugis,,bugis@atlantispods.com,,188091,Wong Mei Ling Judy,6,"2 TAN QUEE LAN STREET, # 02-00",8635C255C0914C61,20200728214024,,,
103.855776386801,1.29837018983763,Backpacker Cozy Corner Guesthouse,,happyjohn@cozycornerguest.com,,188736,Judy Wong Mei Ling,15,490 North Bridge Road (Level 2),9F6A6D4F4413586F,20200728214024,,,
103.847825737272,1.3263318785208,Balestier Hotel,,balestier_hotel@yahoo.com,,329842,Ang Ying Soon,42,471 Balestier Road,FDA67B66B7F7BE8C,20200728214024,,,
103.81654785488,1.25923773923788,Beach Villas,,enquires@rwsentosa.com,,098135,Ong Poi Hwa,35,20 Sentosa Gateway,92A0A0E9F47E5D1A,20200728214024,,,
103.84538117333,1.28384606770696,Beary Best! Hostel,,enquiry@abearygoodhostel.com,,058332,"TAN CHIEH HUI, TRACY",11,18 Upper Cross Street,3C184E1CC8835C07,20200728214024,,,
103.859394682355,1.30120414903648,Beary Best! Hostel Kampong Glam,,BearyKG@abearygoodhostel.com,,199761,"TEO FA YU, ALVIN",4,"64 ARAB STREET, # 00-00",6170F48FBBAF69F5,20200728214024,,,
103.845477809189,1.28379359689987,Beary Nice Hostel,,,,058330,Chia Kwee Beng,4,"14 UPPER CROSS STREET, # 1- BACKPACKER'S INN CHINATOWN 3",F6A071BF91FB5A81,20200728214024,,,
103.828399493406,1.31394109858619,Mercure Singapore on Stevens,,H9561-gm@accor.com,,257878,"Wong Weng Fatt, Philip",518,"28 STEVENS ROAD, # 02-01",736907AA43D86B51,20200728214024,,,
103.881747206923,1.31323581232938,New Cathay Hotel (Geylang),,newcathayhotel@yahoo.com.sg,,389403,Chan Albert Graeme,53,443A Geylang Road,9A3172982DFC7BE1,20200728214024,,,
103.844782388216,1.32003004588439,"Oasia Hotel Novena, Singapore",,frontofc.ohs@fareast.com.sg,,307470,Roy Liang Ming Kai,428,8 Sinaran Drive,80CA87F821CB9D01,20200728214024,,,
103.860633791231,1.3123170980015,Parc Sovereign Hotel - Tyrwhitt,,contact@parcsovereign.com,,207569,Richard Cheong Su Tan,270,165 Tyrwhitt Road,9E4DECE85FA08CDB,20200728214024,,,
103.856493969017,1.29720601629426,Park View Hotel,,parkview@parkview.com.sg,,189692,Chua Seok Chuan,88,81 Beach Road,150AA225E00627AE,20200728214024,,,
103.94704995457,1.33160106900625,Q Loft Hotels@Bedok,,mgtqloft@gmail.com,,469546,TAN TIAN MEI,12,"357A BEDOK ROAD, # 1-",D659C4A4FD803828,20200728214024,,,
103.850795186495,1.27830729144643,The Westin Singapore,,westin.singapore@westin.com,,018961,Yan Tongji,305,12 Marina View   Asia Square Tower 2,9970EFDF0FFE0F6A,20200728214024,,,
103.900582467694,1.31154791813894,Venue Hotel The Lily,,venuelily@venuehotel.sg,,427495,Federico Asaro,84,238  Joo Chiat Road,2B19BCD44BA52791,20200728214024,,,
103.841542357757,1.28061922396397,KeSa House,,,,089158,SIAH WEI QIANG,60,"55 KEONG SAIK ROAD, # 01-02",FD57F84BE2EA9FA2,20200728214024,,,
103.854022759534,1.30473915824794,Snooze Inn @ Dunlop Street,,,,209356,Tsai Shi Shyuan,15,28 DUNLOP STREET KAWAN HOSTEL,0E17FCCF246EDBE6,20190620111820,,,
103.853135267954,1.30108678628959,South East Asia Hotel,,seahotel@singnet.com.sg,,187965,Huang Wen Hwa,51,190 Waterloo Street,79F31324BCC1C495,20190620111820,,,
103.900168104154,1.31220268168059,Betel Box Backpackers Hostel,,info@betelbox.com,,427471,Ronny Lee Tiang Luok,6,200 Joo Chiat Road,C35238BC7ACBD00F,20200728214024,,,
103.860152247876,1.3118099599849,Blanc Inn,,blancinn@gmail.com,,207564,Chow Keng Hai,4,151 Tyrwhitt Road,0A0416C2033030B2,20200728214024,,,
103.844304195694,1.28445774430707,Bliss Hotel Singapore,,reservation@blisshotel.com.sg,,058353,Teo Pei Han Janine,42,62 Upper Cross Street,2B14BC1354DC0FF2,20200728214024,,,
103.85790553137,1.30982597177326,Blue Jazz Hostel,,,,208916,Teo Peihan Janine,5,243 JALAN BESAR,5D64B51AB7A82D5A,20200728214024,,,
103.858436453128,1.30258711150837,Breeze Inn,,breezeinn8@gmail.com,,199135,Tan Say Kiong,16,3 JALAN PINANG ADAMSON INN,0B1AF955D3EB6605,20200728214024,,,
103.878864871245,1.31351593312261,Bright Star Hotel,,brightstarhotel@yahoo.com.sg,,388575,Iek Tong Wah,86,20 Lorong 17 Geylang,CB853F544F65536D,20200728214024,,,
103.853224451953,1.30917900212984,Broadway Hotel,,broadwayhotelsingapore@yahoo.com,,218067,Kee Khek Thai,65,195 Serangoon Road,6FA883FFE768AC84,20200728214024,,,
103.880423593148,1.31221720783339,BudgetOne Hotel,,,,398793,Wang CuiRong,49,10 LORONG 18 GEYLANG BUDGETONE HOTEL,A49D496D883C2A70,20200728214024,,,
103.841824512271,1.28063133791161,BUTTERNUTTREE HOTEL,,,,088392,LIN YI YUN,55,22 TECK LIM ROAD PARK 22 HOTEL CHINATOWN,41FED2B8F4CA5594,20200728214024,,,
103.954974045383,1.33674234821614,Cameron Hotel,,info@cameronhotel.com.sg,,486917,Pauline Seah Swee Lian,19,393F Upper Changi Road,95B50FAFDA6E427A,20200728214024,,,
103.852641538954,1.30499470478209,Campbell Inn,,,,209922,Sim Seng Quee,10,50 CAMPBELL LANE CHECKERS BACKPACKERS,AEC03440B3072C29,20200728214024,,,
103.824378229099,1.24948297406912,"Capella Hotel, Singapore",,gr.singapore@capellahotels.com,,098297,Lim Kee Huat,193,1 The Knolls,9CA2E74F8148AEB7,20200728214024,,,
103.963583777969,1.3342655648281,"Capri By Fraser Changi City, Singapore",,enquiry.singapore@capribyfraser.com,,486037,Adrian Ee Weiming,313,3 Changi Business Park Central 1  Changi City,8E9AFDE8FA5D6907,20200728214024,,,
103.847061684457,1.28401467620777,"Capri By Fraser China Square, Singapore",,reservations.singapore@capribyfraser.com,,058743,WIWIN CHRISTANTI GHOBIND,304,181 SOUTH BRIDGE ROAD,A88878CB72F64A51,20200728214024,,,
103.844862902624,1.28415452275202,CAPSULE POD BOUTIQUE HOSTEL,,info@capsulepod.sg,,058341,Nicholas Ong Ann Wei,15,"38 UPPER CROSS STREET, # 02-01",77402B43B7D2F1DD,20200728214024,,,
103.883955325222,1.31594220611958,CapsulePod@Aljunied,,,,388194,Wang Cuirong,8,76A LORONG 27 GEYLANG,5EA68B54B972FC0A,20200728214024,,,
103.860070225371,1.29945373680809,"PARKROYAL on Beach Road, Singapore",,enquiry@parkroyalhotels.com,,199591,CAMPILLO ANGELITO PAOLO LACSON,346,7500A Beach Road The Plaza,4924DB8DA0266F16,20190620111820,,,
103.852518906013,1.29592644324195,Carlton Hotel,,mail@carltonhotel.sg,,189558,Tang Suan Pen,940,76 Bras Basah Road,2D7EFA59F483C959,20200728214024,,,
103.856401207739,1.30668645165441,Central 65 Hostel & Cafe,,admin@central65hostel.com,,208852,Vernon Lee Koon Yong,15,134 Jalan Besar,2D2347DBC2682EA4,20200728214024,,,
103.898375899105,1.31473398017971,Champion Hotel,,janet@championhotel.com.sg,,427726,XIE ZHIYANG KEITH,81,60 Joo Chiat Road,9FE5576D40A641EF,20200728214024,,,
103.847101641718,1.2870553523913,CHAMPION HOTEL CITY,,janet@championhotel.com.sg,,059293,Douglas Maxwell Glen,33,37 NORTH CANAL ROAD,97C89622A4452BB3,20200728214024,,,
103.975654971312,1.38857514608333,Changi Cove,,enquiry@changicove.com,,509866,Darren Leroy Ware,141,351 Cranwell Road,0716878AC7429246,20200728214024,,,
103.877803629582,1.31159165655393,CherryLoft @Lorong10,,acct@cherryloft.com,,399042,LIN WEILAN,36,9 LORONG 10 GEYLANG HORNBILL HOTEL,1D1079E2553E1ADB,20200728214024,,,
103.853677597238,1.30619457600235,CherryLoft Express,,acct@cherryloft.com,,207398,Choo Kuo Hsiung James,34,41 UPPER WELD ROAD,FE4E1717E6D606A4,20200728214024,,,
103.876690711173,1.31090999883113,five/6 Hotel Splendour,,,,399167,Thomas Andrew Meyer,71,5 LORONG 6 GEYLANG,D0F891332C45D932,20200728214024,,,
103.958317578175,1.37916855177722,Cherryloft Resorts,,resorts@cherryloft.com,,509404,CHOO KUO HSIUNG JAMES,186,159 Jalan Loyang Besar,F90A1F0BB5FA73D1,20200728214024,,,
103.848964671913,1.28795051990571,Circular House,,,,049362,Chew Tee Yen,12,6 CIRCULAR ROAD,0234F0BDC6B30E56,20200728214024,,,
103.851438825178,1.30512221745202,Citadines Rochor Singapore,,frontoffice.crsg@the-ascott.com,,218227,Ong ShiQing Andrea,320,"2 SERANGOON ROAD, # 01-03 TEKKA PLACE",15C288F96C7AE0F1,20200728214024,,,
103.847281913664,1.28780398825889,City Backpackers,,citybackpackers@hotmail.com,,059661,Ong Shiqing Andrea,11,18 Hongkong Street,008BD075801EEACA,20200728214024,,,
103.85816175664,1.30942994343081,Classique Hotel,,reservations@classiquehotel.com.sg,,208913,Tan Kee Chong Derrick,42,"240 Jalan Besar , # 01-01",3C427F68B055A9E4,20200728214024,,,
103.842228053204,1.30061437146928,Concorde Hotel Singapore,,singapore@concorde.net,,238840,yan tongji,418,100 Orchard Road,F159AF5EE38D46CB,20200728214024,,,
103.85877475133,1.29352504343592,Conrad Centennial Singapore,,sinci_acc@conradhotels.com,,038982,Ang Beng MAY,512,2 Temasek Boulevard,B345D633BE2059D3,20200728214024,,,
103.836642496764,1.28825959921985,Copthorne King Hotel Singapore,,rooms@copthornekings.com.sg,,169632,Karl Lee Muir,313,403 Havelock Road,AC71C7681B68E516,20200728214024,,,
103.8728758866,1.31077389402222,Coziee Lodge,,denniskyj@gmail.com,,389198,Yeoh Cheng Kung,5,77A Geylang Road,2120FA2D7F32D818,20200728214024,,,
103.819279861729,1.25593387293635,Crockfords Tower,,enquires@rwsentosa.com,,098270,Chng Siew Chai,121,10 Sentosa Gateway,373665F547DD468B,20200728214024,,,
103.987947172552,1.35868034734966,Crowne Plaza Changi Airport,,sincp@ihg.com,,819664,Khong Cheng Hoe Peter,563,75 Airport Boulevard,AF34378E82DE7E57,20200728214024,,,
103.859372517722,1.30162127482298,Cube @ Kampong Glam,,,,199471,"Kwek Yi Jun, Dennis",7,55 BUSSORAH STREET,AA379FBC21274205,20200728214024,,,
103.843006363679,1.28316218264506,CUBE @ smith street,,,,058971,Chow Keng Hai,7,76A SMITH STREET,10C6ADD594C1417F,20200728214024,,,
103.843161495087,1.28303982961697,Cube Family Boutique Capsule Hotel @ Chinatown,,booking@yeschinatownpoint.com,,058967,Cristol Bruno Olivier,24,68A Smith Street,2440729D2A7ADF74,20200728214024,,,
103.835010068251,1.284322066591,D'Hotel,,,,169040,CHOA FU SENG,41,231 OUTRAM ROAD WANGZ HOTEL,C6CED90C42FD3DCD,20200728214024,,,
103.87696990266,1.31090126773808,Darlene Hotel (Geylang),,darlenehotel@gmail.com,,399096,CHOA FU SENG,62,32 Lorong 8 Geylang,9F37B29241B8836C,20200728214024,,,
103.864169303074,1.30236655161917,Destination Singapore Beach Road,,Beelay.Pua@yourdestinationhotel.com,,199598,Teh Gek Keng,300,700 BEACH ROAD 700 BEACH,122395C06260E43D,20200728214024,,,
103.880838668454,1.31186042184822,Diamond Hotel,,diamondhotelsg@gmail.com,,398806,Tony John Cousens,42,25 Lorong 18 Geylang,17422EA025A4ED70,20200728214024,,,
103.840007598921,1.27962668340609,Dorsett Singapore,,info.singapore@dorsetthotels.com,,088765,Lim Hui Choon,285,333 New Bridge Road,544E818284CB275C,20200728214024,,,
103.843187860266,1.27887034636785,Duxton Reserve,,,,089540,Tejveer Singh Bedi,49,83 Duxton Road,62177A40D7913DA0,20200728214024,,,
103.847645143301,1.27987745135108,EIGHTEEN BY THREE CABINS,,k.yap@18by3.com,,068722,Tan Hui Sion,18,3 STANLEY STREET,21EE5FC6FF3C646B,20200728214024,,,
103.816896687818,1.25767113430044,Equarius Hotel,,enquiries@rwsentosa.com,,098133,Khoo Lee Ping Jessie,183,16 Sentosa Gateway,232A2F5F67F0823C,20200728214024,,,
103.853331832592,1.2940764375654,"Fairmont, Singapore",,singapore@fairmont.com,,189560,Lim Keong Wee,769,80 Bras Basah Road,64140E18ED91A4D9,20200728214024,,,
103.819026715795,1.25602110299293,Festive Hotel,,enquiries@rwsentosa.com,,098271,Chow Keng Hai,447,12 Sentosa Gateway,D61B8AEC2CD0AE00,20200728214024,,,
103.854064077296,1.30549416858953,Footprints Hostel,,footprints_hostel@hotmail.com,,208136,Chow Keng Hai,22,"25A Perak Road  , # 01-01",6843D316F6126999,20200728214024,,,
103.854953210301,1.31170732725136,Fortuna Hotel,,reservations@fortunahotel.com.sg,,218842,Andrienne Tho Meng Choo,105,2 Owen Road,4DC1FFEF1127F38A,20200728214024,,,
103.890924420622,1.31502461447216,Four Chain View Hotel,,fchain@fourchain.com.sg,,389659,Teo Chou Chun,44,757 Geylang Road,D0D43E2537AC47F1,20200728214024,,,
103.836603813301,1.28937098412522,"Four Points by Sheraton Singapore, Riverview",,finance@fourpointssingaporeriverview.com,,169629,Di Haifeng,476,382 Havelock Road,BA6677619784466B,20200728214024,,,
103.828652722779,1.30521021365117,Four Seasons Hotel,,,,248646,Chong Hiew Kwang,255,190 Orchard Boulevard,20843A2281051B45,20200728214024,,,
103.852659081425,1.32197356951014,Fragrance Hotel - Balestier,,contact@fragrancehotel.com,,329710,Ng Ah Hoi,48,255 Balestier Road,8531B2A815E176AB,20200728214024,,,
103.849620250658,1.32586501711441,Fragrance Hotel - Classic,,contact@fragrancehotel.com,,329808,"Yeo Khee Boon, Felix",48,418 Balestier Road,786F2851EEF8145A,20200728214024,,,
103.878733101613,1.35406396857103,Fragrance Hotel - Kovan,,contact@fragrancehotel.com,,534629,DRAMINSKY PETER CHRISTIAN,43,760 Upper Serangoon Road,D4736F730A2D5A94,20200728214024,,,
103.863070799569,1.30978959074307,Fragrance Hotel - Lavender,,contact@fragrancehotel.com,,338710,SUN YI,35,51 Lavender Street,4635D5C57B26A578,20200728214024,,,
103.848605457803,1.32588609260467,Fragrance Hotel - Oasis,,contact@fragrancehotel.com,,329816,Muzafiru Bin Othman,36,435 Balestier Road,FD5312B911BA6F3C,20200728214024,,,
103.768512802074,1.29241376307725,Fragrance Hotel - Ocean View,,contact@fragrancehotel.com,,118773,SUN YI,47,432 Pasir Panjang Road,45B8CB84F7371688,20200728214024,,,
103.85256481321,1.32207178695444,Fragrance Hotel - Rose,,contact@fragrancehotel.com,,329715,Muzafiru Bin Othman,68,263 Balestier Road,A467964665B0D98D,20200728214024,,,
103.813969784211,1.26988806613339,Fragrance Hotel - Viva,,contact@fragrancehotel.com,,098721,Muzafiru Bin Othman,33,75 Wishart Road,577F6AF77BCD70E9,20200728214024,,,
103.844588552748,1.28647356154828,Furama City Centre Singapore,,financemgr.fcc@furama.com,,059804,Sun Yi,445,60 Eu Tong Sen Street,53FD02980EE6F5BD,20200728214024,,,
103.836092838867,1.28763453813819,Furama Riverfront Singapore,,furama.riverfront@furama.com,,169633,MUZAFIRU BIN OTHMAN,615,405 Havelock Road,324016630837A33E,20200728214024,,,
103.849908920215,1.3043490812321,G4 Station Backpackers Hostel,,info@g4station.com,,228675,Sun Yi,23,11 Mackenzie Road,687BF6B732916AB1,20200728214024,,,
103.795854254263,1.33434829779462,GALLOP HILL TOP RESORT,,enquiry@gallopresort.com,,287992,Sun Yi,40,100 TURF CLUB ROAD,70F5E652C74C5777,20200728214024,,,
103.718425687867,1.41927815815058,GALLOP KRANJI FARM RESORT,,enquiry@gallopresort.com,,718813,Muzafiru Bin Othman,37,10 NEO TIEW LANE 2 D' KRANJI FARM RESORT,C46B5294FDC7F348,20200728214024,,,
103.859427833289,1.31564004044032,Gap Year Hostel,,gapyearhostel@gmail.com,,338821,Sun Yi,7,322 Lavender Street,39C5367D6EE740D8,20200728214024,,,
103.873741281934,1.31119516204353,Gay World Hotel,,,,389218,Sun Yi,27,115 Geylang Road,4AA0EEBB36BE14CD,20200728214024,,,
103.739259626278,1.33156162898379,Genting Hotel Jurong,,enquiries@rwsentosa.com,,608516,Sun Yi,557,2 Town Hall Link,686D365D76206A57,20200728214024,,,
103.830811464545,1.27784875913754,GOLDEN HOSTEL,,,,160146,Muzafiru Bin Othman,7,"146 JALAN BUKIT MERAH, # 01-1088",83EE621B1A98ECF9,20200728214024,,,
103.855250945612,1.30914206986635,Golden Royal Hotel,,eugene@goldenroyal-hotel.com,,209645,Muzafiru Bin Othman,54,51 Desker Road,73DBAFACFFBD2C66,20200728214024,,,
103.877336359038,1.31076953969736,Golden Star Hotel,,goldenstarhotel@yahoo.com.sg,,399095,Muzafiru Bin Othman,43,31 Lorong 8 Geylang,31835167189A57B5,20200728214024,,,
103.835147957844,1.29028192700494,Grand Copthorne Waterfront Hotel Singapore,,enquiry.gcw@millenniumhotels.com,,169663,Sun Yi,574,392 Havelock Road,6E857A24AEFF2C9E,20200728214024,,,
103.827744716094,1.27261402571663,Harbour Ville Hotel,,harbourv@singnet.com.sg,,099448,MANIMAHALAI CHAKRAPANI @ MANI SHANKER,100,512 Kampong Bahru Road,EBDEEC9959A20FBA,20200728214024,,,
103.861509695837,1.31156411968173,Harbour Ville Hotel Hamilton,,,,209210,Yee Seng Fu,43,40 HAMILTON ROAD,EC415EC188BBDD1E,20200728214024,,,
103.818913907351,1.25746583281896,Hard Rock Hotel,,enquiries@rwsentosa.com,,098139,Seah Ming Kwong,364,28 Sentosa Gateway,4A909258228A71E9,20200728214024,,,
103.852244669339,1.30156897150731,Hawaii Hostel,,,,189641,Chow Keng Hai,83,169A Bencoolen Street,CF2AA3D08302E11D,20200728214024,,,
103.848499212415,1.2880823691838,Heritage Collection on Clarke Quay,,,,058670,Siah Seng Koon,19,36 SOUTH BRIDGE ROAD LAI NGUANG BUILDING,CC6A2603C5A5BE02,20200728214024,,,
103.855088788757,1.29589846119217,Heritage Collection on Seah,,,,188395,Tham Keng Pong,18,39 SEAH STREET,12DFF9CF9B2739D1,20200728214024,,,
103.851928685296,1.30833559981707,Hilton Garden Inn Singapore Serangoon,,singi.hotel@hilton.com,,219924,Ee Kee Chai,328,3 Belilios Road,52BC35B4F84A7785,20200728214024,,,
103.829314887852,1.30587902148372,Hilton Singapore,,sinhi@hilton.com,,238883,Timothy Seah How Ming,423,581 Orchard Road,7FA3C24C445BD44C,20200728214024,,,
103.841983925747,1.28924402665703,Holiday Inn Express Singapore Clarke Quay,,info.sincq@ihg.com,,059573,"Khoo Bee Geok, Mavis",442,2 Magazine Road,F0535AE3C72CCA8D,20200728214024,,,
103.904574228644,1.30485336795088,Holiday Inn Express Singapore Katong,,,,423371,SCHOUCAIR FARID ALAIN,451,"88 EAST COAST ROAD, # 07-05 KATONG SQUARE",5849E01E430C01E8,20200728214024,,,
103.836680368343,1.30322795583465,Holiday Inn Express Singapore Orchard Road,,info.sinex@ihg.com,,229921,Willi Beat Martin,221,20 Bideford Road,1E17B0CD45BE644B,20200728214024,,,
103.858630348608,1.31014109037569,Holiday Inn Express Singapore Serangoon,,,,209019,Klaus Dieter Gottschalk,119,270 JALAN BESAR,F42B9FBA9D72FFA4,20200728214024,,,
103.834068286993,1.28907019166027,Holiday Inn Singapore Atrium,,hiatrium@ichotelsgroup.com,,169075,JOHN A KOCKAN,518,317 Outram Road,11EF65BDCEA48BF5,20200728214024,,,
103.841101584501,1.30227912538394,Holiday Inn Singapore Orchard City Centre,,info.hisinorchard@ihg.com,,229616,Kanchan Kanwar,324,11 Cavenagh Road,789DE80F81ABDFEE,20200728214024,,,
103.878121318914,1.31140043113114,Home Suite View Hotel,,homesuite12@gmail.com,,398993,FENG LINGEN,175,12 Lorong 12 Geylang,01012B33456EE818,20200728214024,,,
103.856274002503,1.31047892595777,Hotel 165,,jackson@hotel165.sg,,208532,Tan Boon Yong Dominic,68,165 Kitchener Road,9B9682267295A173,20200728214024,,,
103.844175157457,1.28256763758547,Hotel 1887,,,,058476,Choo Meileen,80,25 TRENGGANU STREET OPERA HOUSE HOTEL,640B893D6AD93987,20200728214024,,,
103.843899635185,1.28285932265539,Hotel 1888,,justin.wong@hotel1888.com.sg,,058479,Lim Shirley,40,"20 TRENGGANU STREET, # 01-03 JINSHAN HOTEL",0D67893004608CBE,20200728214024,,,
103.841812331317,1.28079216116778,Hotel 1929,,bryanong@edsolution.com.sg,,089154,SOH SHIL NIE,33,50 KEONG SAIK ROAD,E4F5799E59C9E9D2,20200728214024,,,
103.853123339191,1.32138046634844,Hotel 81 - Balestier,,hotel81@hotel81.com.sg,,329688,Chow Keng Hai,53,226 Balestier Road,30C90C6BE430065D,20200728214024,,,
103.855618625297,1.29687853383032,Hotel 81 - Bugis,,hotel81@hotel81.com.sg,,188995,Ng Kun Heng,88,31 Middle Road,15B1260EDFD916E9,20200728214024,,,
103.911729077231,1.31869115633081,Hotel 81 - Changi,,hotel81@hotel81.com.sg,,419871,Eva Moral,80,"428 Changi Road , # 01-01",26435B984F5C4252,20200728214024,,,
103.878417449833,1.31199127691196,Hotel 81 - Cherry,,hotel81@hotel81.com.sg,,399014,Peter Webster,53,3 Lorong 12 Geylang,7B3DF516C3F49775,20200728214024,,,
103.841859436164,1.27966689951546,Hotel 81 - Cosy,,hotel81@hotel81.com.sg,,089263,Adel Aramouni,39,8 Jiak Chuan Road,F844FDFC08E57115,20200728214024,,,
103.854269341864,1.30490446592441,Hotel 81 - Dickson,,hotel81@hotel81.com.sg,,209530,Najeeb Kurungottu,196,3 Dickson Road,7991DBAAE6E49592,20200728214024,,,
103.860271946103,1.31237964690163,Hotel 81 - Elegance,,hotel81@hotel81.com.sg,,209276,Garside Ashleigh Maree,120,"30 Foch Road , # 01-01",ED21428A50722505,20200728214024,,,
103.852599854946,1.32218490550845,Hotel 81 - Fuji,,hotel81@hotel81.com.sg,,329720,Tuncay Bockin,78,269 Balestier Road,787F346C6064E1A5,20200728214024,,,
103.879565363057,1.31178580684439,Hotel 81 - Geylang,,hotel81@hotel81.com.sg,,398863,Gobind Naroomal Gary Harilela @Gary Harilela,88,20 Lorong 16 Geylang,C0A53C0AD03E4137,20200728214024,,,
103.850402269195,1.29850072017742,30 BENCOOLEN,,andrew.bastian@30bencoolen.com.sg,,189621,TAN KHENG HWEE,131,30 BENCOOLEN STREET,45B03EF3320B1450,20200728214024,,,
103.845323099881,1.28192548179816,5footway.inn Project Ann Siang,,,,058818,Yei Maung,24,269 South Bridge Road (Level 3),BCD31D653878F925,20200728214024,,,
103.881036636411,1.31122558409044,RedDoorz @ Geylang,,,,397662,AMIT SABERWAL,33,61 WESTERHOUT ROAD,9DED7DB981792630,20200728214024,,,
103.858155071754,1.31019236449532,7 Wonders Hostel,,,,208930,Chan Zhiwei,6,257 Jalan Besar,4BC404816832F030,20200728214024,,,
103.852350568271,1.30635176142908,7 Wonders Hostel @ Upper Dickson,,hr@7wondershostel.com,,207472,Shahjahan Bin Mohamed Sitthiq,8,12A UPPER DICKSON ROAD CLIFDEN HOSTEL,59983D0C2F1542FA,20200728214024,,,
103.859267550804,1.30366887875577,ABC HOSTEL,,booking@abchostel.com.sg,,199201,SHAHJAHAN BIN MOHAMED SITTHIQ,22,3  Jalan Kubor (1st Storey),CA625887019C8B2E,20200728214024,,,
103.853106387895,1.31327443655391,ABC Premium Hostel,,enquiry@abcpremiumhostel.com.sg,,218903,Tan Joon Meng,6,91A Owen Road,846FED1D30977717,20200728214024,,,
103.852965178949,1.30448415943975,Adamson Lodge,,query_chris@yahoo.com.sg,,208127,TEO WEN HAO,7,6 Perak Road,FE5021644717F3D9,20200728214024,,,
103.8846809303,1.31324104846934,AL Asia Hotel,,,,389447,Tan Sin Khoon,16,488 GEYLANG ROAD,C7D6BD8FAC7C86B3,20200728214024,,,
103.860268091316,1.30336025012185,Aliwal Park Hotel,,aliwalpark77@gmail.com,,199948,Lee Choon Chuan,53,77 Aliwal Street,338C31C61117AA07,20200728214024,,,
103.822016591014,1.25212800048918,"Amara Sanctuary Resort, Sentosa",,sentosa@amarasanctuary.com,,099394,Lim Siew Iy @ Lim Siew Ching,140,1 Larkhill Road,7E2F91BF08CF8DDB,20200728214024,,,
103.843500117167,1.27493473787886,Amara Singapore,,singapore@amarahotels.com,,088539,Wong Lee Peng,380,165 Tanjong Pagar Road,B8E40908997E0ACC,20200728214024,,,
103.901244740584,1.30092010603163,Amber Hotel,,wuterence@gmail.com,,439885,Joseph Thiang Thin Poh,21,42 Amber Road,409E53B7EF9FECB8,20200728214024,,,
103.901096194874,1.3008154172378,Amber Hotel Katong,,wuterence@gmail.com,,439878,Joseph Thiang Thin Poh,25,40 Amber Road,6D2E466933EEF269,20200728214024,,,
103.84864539809,1.28300038937659,Amoy Hotel,,info.amoy@fareast.com.sg,,048464,Rozlan Samadi,37,76 Telok Ayer Street,3144BDE5156806B3,20200728214024,,,
103.877872197764,1.31392297209217,Amrise Hotel,,reservation@amrisehotel.com,,387436,Goh Chee Hwee,58,"112 Sims Avenue , # 01-01",BD6D5FF9F34C8309,20200728214024,,,
103.857859544648,1.29916295638181,Andaz Singapore,,singapore@andaz.com,,189354,Goh Chee Hwee,342,5 FRASER STREET,60AA84F204A9B06F,20200728214024,,,
103.845721510662,1.2807288857312,Ann Siang House,,,,069708,Zulkarnain Bin Johar,20,28 ANN SIANG ROAD,73EE86A830E0D525,20200728214024,,,
103.858027585848,1.30929085528988,AQUEEN - Jalan Besar Hotel,,,,208906,LIM TIM BOCK,74,230 Jalan Besar,CC35ED72B5ED5BC8,20200728214024,,,
103.8986087202,1.31496412930389,Aqueen Heritage Hotel - Joo Chiat,,,,427373,Olivier Lenoir,70,51 Joo Chiat Road,479DDB1BBB3F4306,20200728214024,,,
103.861185772159,1.31234470122478,Aqueen Hotel - Lavender,,,,338739,Chan Boon Tat,104,139 Lavender Street,C500B92568E5FFBD,20200728214024,,,
103.861344016453,1.31144511621403,Arcadia Hotel,,wyneo@arcadiahotel.com.sg,,209201,Chan Boon Tat,36,32 Hamilton Road,1E36496D84135466,20200728214024,,,
103.855916077404,1.30898195611065,Arianna Hotel,,accounts@arianna.com.sg,,207662,Chan Boon Tat,51,83 Syed Alwi Road,7FEC20B2BF81C522,20200728214024,,,
103.872957810113,1.31083993031984,Ark Hostel,,singaporelodgingpteltd@gmail.com,,389200,Chan Boon Tat,31,83B Geylang Road,76C437DC69178BBE,20200728214024,,,
103.860855935208,1.31200012479956,Arton Hotel,,,,207576,Chan Boon Tat,109,176 Tyrwhitt Road,CE24146F24CB948D,20200728214024,,,
103.837118390961,1.30398869691117,Ascott Orchard Singapore,,,,229724,Neo Wan Yong,220,11 CAIRNHILL ROAD,3FB23879768D9733,20200728214024,,,
103.851544401021,1.28208454707961,Ascott Singapore Raffles Place,,enquiry@the-ascott.com,,049247,Ng Swee Yak,146,2 Finlayson Green,EA1EEC70311790AD,20200728214024,,,
103.854724878876,1.30850392397464,Asia Star Hotel,,johnnyangys@hotmail.com,,207995,Kelvin Tng Eng Khai,14,44 Rowell Road,02A170193A3F26EC,20200728214024,,,
103.819943383466,1.25225951518977,Village Hotel Sentosa,,,,099951,Peter Yang,606,"10 ARTILLERY AVENUE, # 02-01",3ACCB4426627B986,20200728214024,,,
103.847112672325,1.28741331170278,Vintage Inn@Clarke Quay,,,,059672,Krister Roland Svensson,5,"33 HONGKONG STREET, # 3-33B",507C99094C45BED1,20200728214024,,,
103.834573063566,1.3156477325095,VIP Hotel,,booking@viphotel.com.sg,,259895,Wang Tjang Yuin,57,5 Balmoral Crescent,AAFED76C786FD521,20200728214024,,,
103.842428148098,1.24616550353468,W Singapore Sentosa Cove Hotel,,,,098374,Allan Lee @ Lee Kheen Woon,240,21 Ocean Way,EC5BB01E417583D4,20200728214024,,,
103.854629633951,1.30512093794701,Wanderlust,,,,209494,HAN BIN,29,2 DICKSON ROAD,E634CAE254507E9C,20200728214024,,,
103.844144231952,1.28394841482097,Wink Hostel,,,,059488,Chang Ying,9,8A Mosque Street,8CD89B4178115C58,20200728214024,,,
103.84757635916,1.27968475056385,Wink Hostel @ Downtown,,,,069044,Khoo Elizabeth,10,3B MCCALLUM STREET,F61D800B80D5AE4B,20200728214024,,,
103.859686467655,1.30420913008075,XY HOTEL BUGIS by ASANDA HOTELS AND RESORTS,,bugis_accounts@xyglobalhotel.com,,199323,DALY BRENDAN FRANCIS,15,11 JALAN KLAPA THE ARDENNES,3359BC365E34DC33,20200728214024,,,
103.885504024451,1.31400085109484,Yew Lian Hotel,,,,389504,Cross Norman Francis,18,549A Geylang Road,7D48A90FB1641F12,20200728214024,,,
103.849916615644,1.32522597394005,RedDoorz Premium @ Balestier,,,,329795,FRANCIS CHOO KOH ENG,47,387 BALESTIER ROAD,96A6381E7093C0A3,20200728214024,,,
103.853089993362,1.30782184572235,RedDoorz Premium @ Serangoon,,,,207309,Douglas Fernandez,24,3 VEERASAMY ROAD,9575796FACED18E3,20200728214024,,,
103.826031941452,1.31283861068763,RELC International Hotel,,,,258352,Loke Weng Yian,151,30 ORANGE GROVE ROAD RELC BUILDING,228775507F2BFE05,20200728214024,,,
103.849316109185,1.29858303536992,Rendezvous Hotel Singapore,,reseasy@fareast.com.sg,,189559,Parry Raymond John,298,9 Bras Basah Road,76A6E9EF9718F326,20200728214024,,,
103.859429082823,1.30405334691991,Rest Bugis Hotel,,,,199207,Ng Swee Huat,74,8 JALAN KUBOR SANTA GRAND HOTEL BUGIS,F7A9ECA7891E9BC4,20200728214024,,,
103.847112672325,1.28741331170278,River City Inn,,rivercityinn.sg@gmail.com,,059672,Ee Kee Chai,4,33C Hongkong Street,507C9909CF15A421,20200728214024,,,
103.635089828004,1.34158800024817,RM Hotel,,recept@rafflesmarina.com.sg,,638404,Patrick Fiat,19,10 Tuas West Drive,E4AF163C582DA844,20200728214024,,,
103.841985961154,1.29116819945429,Robertson Quay Hotel,,accounts@robertsonquayhotel.com.sg,,239032,Jacquelyn Chan,148,15 Merbau Road,790DB71BDB188818,20200728214024,,,
103.83144576982,1.30708931817226,Royal Plaza,,royal@royalplaza.com.sg,,228220,LI XIAOJIA,511,25 Scotts Road,05B26C8FE1589AAC,20200728214024,,,
103.860315945966,1.31436249656989,Rucksack Inn 2 @Lavender,,,,338800,Pankaj Pandit,12,280A Lavender Street,6CD41322E5521B00,20200728214024,,,
103.860315945966,1.31436249656989,Rucksack Inn@Lavender,,lavender@rucksackinn.com,,338800,Siah Siew Geok,7,280  Lavender Street,6CD4132289A3D929,20200728214024,,,
103.84359520029,1.28330904377112,S Inn Chinatown,,ts@bedsanddreamsinn.com,,058597,Siah Siew Geok,13,52 Temple Street,C3B34730944ED46D,20200728214024,,,
103.847321862854,1.28732233868587,S Inn Clarke Quay,,cq@s-inn.co,,059677,Siah Siew Geok,11,38A Hongkong Street,F9167CB669AD54ED,20200728214024,,,
103.853595766242,1.30480931241135,Sandpiper Hotel,,reservations@sandpiperhotels.com,,209391,Han Siew Ying,31,63 Dunlop Street,2183609951270B65,20200728214024,,,
103.905795541013,1.30672319863699,Santa Grand Hotel East Coast,,reservations@santagrand.stayariva.com,,428877,Kuok Oon Kwong,73,171 East Coast Road,11B3D1D2B719FFB4,20200728214024,,,
103.882411818147,1.31231758276067,Seng Wah Hotel,,sengwahhotel@hotmail.com,,398673,Kuok Oon Kwong,16,15 Lorong 22 Geylang,54E34679CDE15BC8,20200728214024,,,
103.826756760617,1.31124740290095,Shangri-La Hotel,,sls@shangri-la.com,,258350,Long Sie Fong,792,22 Orange Grove Road,468EE28F52B74837,20200728214024,,,
103.809797894322,1.25780205516677,"Shangri-La's Rasa Sentosa Resort & Spa, Singapore",,sen@shangri-la.com,,098970,NG YU TECK,454,101 Siloso Road Sentosa,BB45D010C01933FF,20200728214024,,,
103.836462155528,1.31195052968093,Sheraton Towers Singapore Hotel,,sheraton.towers.singapore@sheraton.com,,228230,Kay Wong Siew Lan,420,39 Scotts Road,F8CB983B48EAC761,20200728214024,,,
103.814500414013,1.25498728174306,Siloso Beach Resort,,accounts@silosobeachresort.com,,099538,Jason Leung,195,51 Imbiah Walk,6ABC046B8092A0A4,20200728214024,,,
103.891452441641,1.30076129162384,Sing Hoe Hotel,,,,437761,RAJENDRA PRASAD S/O N N SRINIVASA NAIDU,41,759 Mountbatten Road,985701142E735094,20200728214024,,,
103.832874081575,1.3050223054635,Singapore Marriott Tang Plaza Hotel,,,,238865,Aitken Murray Lindsay,395,320 Orchard Road,44DC3BCF6A4AD7F7,20200728214024,,,
103.860729254991,1.31141627021243,Singapore OSS Backpackers Hostel Pte Ltd,,sossbackpackers@gmail.com,,209180,Aitken Murray Lindsay,9,"9 HAMILTON ROAD, # 01-01",0282C86010456BCF,20200728214024,,,
103.849654800023,1.27992196206236,SO Sofitel Singapore,,H8655@sofitel.com,,068876,Rushdee Hosany,134,35 Robinson Road,D76D599B53CD5B66,20200728214024,,,
103.827525712322,1.24506009738348,Sofitel Singapore Sentosa Resort & Spa,,h9474@sofitel.com,,099891,PIOTR JAN KUPIEC,215,2 Bukit Manis Road,C5C49158ADA0FB69,20200728214024,,,
103.861714993221,1.31033177948249,Spacepod@Lavender,,booking@bpsg.com.sg,,208559,Bian Haiqiu,8,111J King George's Avenue,F0F5D28062C8D0BD,20200728214024,,,
103.856569786349,1.29730337226862,ST Signature Bugis Beach,,,,189694,GONZALEZ GONZALEZ FRANCISCO JAVIER,38,85 BEACH ROAD 85 BEACH GARDEN HOTEL,DB99D87A52B09D5C,20200728214024,,,
103.845275724046,1.28184250020967,ST Signature Chinatown,,xinfang.ng@straitsorg.com,,058822,Ang Beng Hoh,25,273A SOUTH BRIDGE ROAD,C7D8D6619513B67D,20200728214024,,,
103.854840702869,1.30536577750822,ST Signature Jalan Besar,,,,207372,Pjey Mayandi,69,15 UPPER WELD ROAD BUNC HOSTEL,EA004B2D057734D5,20200728214024,,,
103.826053297316,1.30566129462341,St. Regis Hotel Singapore,,stregis.singapore@stregis.com,,247911,Lim Chin Sen,299,29 Tanglin Road,83789C92930E457D,20200728214024,,,
103.849738602552,1.29865275917035,Strand Hotel,,reservations@strandhotel.com.sg,,189619,Tarn Heng Chye,130,25 Bencoolen Street,4CBD6C0CE318FC20,20200728214024,,,
103.855405321377,1.29652178913596,Hotel Kai,,mgr1@hotelkai.com,,188593,TAN HWA LIAN,32,14 Purvis Street,7B30DFF341EB362E,20200728214024,,,
103.852237513996,1.30165938361762,Summer View Hotel,,sales@summerviewhotel.com.sg,,189642,Thomas Andrew Meyer,86,173  Bencoolen Street,CD59DA00C6419957,20200728214024,,,
103.845692303714,1.28821802379382,"Swissotel Merchant Court,Singapore",,singapore-merchantcourt@swissotel.com,,058281,Yee Loy Hoe,476,20 Merchant Road,E95540E0E48AD361,20200728214024,,,
103.853365178371,1.29326862339764,"Swissotel The Stamford, Singapore",,singapore-stamford@swissotel.com,,178882,Tay Tiong Ying,1252,2 Stamford Road,274A090A0CDFF28F,20200728214024,,,
103.856565024278,1.31026597160938,Tai Hoe Hotel,,gmgthh@gmail.om,,208538,"HENG CHERN CHIEH, GERMAINE",73,163 Kitchener Road,66D062AC7483797C,20200728214024,,,
103.877081648955,1.30992260867721,Taipei Hotel (2000),,,,399120,Han Siew Ying,38,60 Lorong 8 Geylang,4BA3F667DE6E31FC,20200728214024,,,
103.834768586143,1.28500983806332,Thad's Boutique Hostel,,info@thequayhotel.sg,,169056,Annie Lee,11,259C OUTRAM ROAD COO,9AE8FC67F9C729F1,20200728214024,,,
103.879175568282,1.31219356032737,The Amazing Inn,,sengwahhotel@hotmail.com,,398913,Parvinder Chopra,18,1 Lorong 14 Geylang,88CC31FC65D19F37,20200728214024,,,
103.850020544639,1.29898582310214,Hotel Mi,,contact@hotelmi.sg,,189623,CHU POH YONG,342,"41 BENCOOLEN STREET, # 01-01",AC779506B1D13750,20200728214024,,,
103.850710602099,1.29416210124998,THE CAPITOL KEMPINSKI HOTEL SINGAPORE,,,,178906,Mohamed Faharudin Bin Masood,157,15 STAMFORD ROAD,B25D68AB9A04D1CA,20200728214024,,,
103.852855023694,1.30475126170812,The Daulat,,reservation@thedaulat.com,,208413,Muzafiru Bin Othman,16,16 Madras Street,45265B4990098313,20200728214024,,,
103.835712305282,1.30802411708655,The Elizabeth,,info@theelizabeth.com.sg,,228518,Giovanni Viterale,256,24 Mount Elizabeth,8285E273FC282B9D,20200728214024,,,
103.8534802041,1.28396667042345,The Fullerton Bay Hotel,,fbh.info@fullertonhotels.com,,049326,Giovanni Viterale,98,80 Collyer Quay,2745F9F5AC6FF634,20200728214024,,,
103.852970351253,1.2861932360653,The Fullerton Hotel,,tfs.info@fullertonhotels.com,,049178,SHAIK MOHAMED S/O MOHAMED ABDUL JALEEL,399,1 Fullerton Square,7604490E43E5048F,20200728214024,,,
103.853009974106,1.30493595075971,THE GREAT MADRAS,,zubair@dam.com.sg,,208422,Kevin David Hynds,29,28 MADRAS STREET,ACD183F8741AAD8C,20200728214024,,,
103.843868478868,1.28320660795322,The Inn at Temple Street,,rsvn.room@theinn.com.sg,,058581,Kho Chuan Thye Patrick,42,36 Temple Street,DB87DFC65D891EF8,20200728214024,,,
103.877512889799,1.31128855675534,K HOTEL 12,,,,399045,Koo Seck Chong,28,12 LORONG 10 GEYLANG,FDFE52E284461BB1,20200728214024,,,
103.841640168586,1.28103904341286,The Keong Saik Hotel,,reservations@keongsaikhotel.com.sg,,089165,Tan Koon Jim,25,69 Keong Saik Road,C08E9BF6BEEF19F5,20200728214024,,,
103.819943383466,1.25225951518977,The Outpost Hotel Sentosa,,,,099951,TRINH TRAN CHAU,193,"10 ARTILLERY AVENUE, # 03-01",3ACCB44225F8AD3F,20200728214024,,,
103.857758269035,1.29111728356103,The Pan Pacific Hotel Singapore,,enquiry.ppsin@panpacific.com,,039595,Wehinger Kurt Otto,790,7 Raffles Boulevard,1DC444E02F3CCA46,20200728214024,,,
103.848312936218,1.2870550760207,THE QUAY HOTEL,,,,058688,"Heng Chern Chieh, Germaine",41,57 SOUTH BRIDGE ROAD SANTA GRAND HOTEL BOAT QUAY,8F1A6E600DCCD2BF,20200728214024,,,
103.768589721055,1.29233444235646,The Quay Hotel West Coast,,,,118769,Abdullah Bin Ali,42,428 PASIR PANJANG ROAD SANTA GRAND HOTEL WEST COAST,92F45D6A401663C3,20200728214024,,,
103.835748313428,1.30775153247414,The Quincy Hotel,,info.tqh@fareast.com.sg,,228517,Oscar Joan Giorgius Postma,108,22 Mount Elizabeth,0DDCF09C77E0831B,20200728214024,,,
103.824897364807,1.30467322365634,The Regent Singapore,,reservations@regentsingapore.com.sg,,249715,Peter William Mainguy,440,1 Cuscaden Road,0483F038569124B8,20200728214024,,,
103.860047265048,1.29071830259005,"The Ritz-Carlton, Millenia Singapore",,sinrz.leads@ritzcarlton.com,,039799,Fong Kah Seng,608,7 Raffles Avenue,5AC82CBB50640D49,20200728214024,,,
103.820219415167,1.25493344657437,Hotel Michael,,enquiries@rwsentosa.com,,098269,Zhang YuanQing,464,8 Sentosa Gateway,B723D8A28B167FA6,20200728214024,,,
103.837414948933,1.28821989466535,Hotel Miramar Singapore,,enquiry@miramar.com.sg,,169631,Teo Kok Hwee,342,401 Havelock Road,64350D71D9D82238,20200728214024,,,
103.844451263067,1.28379045079176,Hotel Mono,,,,059498,Teo Kok Hwee,46,"18 MOSQUE STREET, # 01-04",496E83714FEDC2EB,20200728214024,,,
103.858275297851,1.30275140814887,Hotel Nuve,,contact@hotelnuve.com,,199143,Lee Soon Tai,43,11 Jalan Pinang,B7AB95BF49B1892A,20200728214024,,,
103.847485428195,1.28723475456215,Hotel NuVe Elements,,doreen.soh@hotelnuveheritage.com,,059680,Ang Kian Kok,24,41 HONGKONG STREET,29A39A151197DCC2,20200728214024,,,
103.855342376526,1.29651404832504,Hotel NuVe Heritage,,,,188592,Ngo Bee Lee,19,13 PURVIS STREET ADONIS HOTEL,5E4A09C9DEA3FC6B,20200728214024,,,
103.858805131874,1.30732088892971,Hotel NuVe Urbane,,,,208582,Ng Wee Meng,62,3 KING GEORGE'S AVENUE,2D4A2D8BFC9C8582,20200728214024,,,
103.838407284725,1.28541002481652,Hotel Re! @ Pearl's Hill,,hr@hotelre.com.sg,,169879,Oh Chee Eng,140,175A Chin Swee Road,70403A7343A86C22,20200728214024,,,
103.841859487874,1.31683060092808,Hotel Royal,,royal@hotelroyal.com.sg,,307964,Ho Siew Hwa,362,36 Newton Road,3EA4D04973F8C052,20200728214024,,,
103.861821449557,1.31087924623786,Hotel Snow Lavender,,hotelsnow.lavender@gmail.com,,209854,Tan Hwa Lian,32,26 CAVAN ROAD HOTEL SNOW,7A21C3F1134293D9,20200728214024,,,
103.841991814742,1.28037791620728,Hotel Soloha,,,,088387,Wee Cheng Lim,45,12 TECK LIM ROAD,9DBEF7F7583E9A7B,20200728214024,,,
103.842424737463,1.30133935750645,Hotel Supreme,,,,228750,Adel Aramouni,86,15 Kramat Road,C198C33969FEF8A1,20200728214024,,,
103.855108812764,1.30981355102668,Hotel Yan,,reservations@hotel-yan.com,,207681,Kuok Oon Kwong,69,162 Tyrwhitt Road,079B039AFC232E3D,20200728214024,,,
103.887584117469,1.31396450261326,Hup Hoe Hotel,,,,389525,Kuok Oon Kwong,10,586A Geylang Road,D2B2808565DEEE3A,20200728214024,,,
103.855556164289,1.29692081795715,ibis budget Singapore Bugis,,contact@fragrancehotel.com,,188942,Tan Wee Teck,84,33 Middle Road,88B24860DB43DAD9,20200728214024,,,
103.847146355817,1.28789594572544,ibis budget Singapore Clarke Quay,,contact@fragrancehotel.com,,059663,Kusaka Masaharu,101,20 Hongkong Street,484A83EAE1106A9E,20200728214024,,,
103.880589488415,1.31057497568161,ibis budget Singapore Crystal,,contact@fragrancehotel.com,,398824,Chow Keng Hai,125,50 Lorong 18 Geylang,6AA223E6C07A8CD9,20200728214024,,,
103.876341748039,1.31100987837705,ibis budget Singapore Emerald,,contact@fragrancehotel.com,,399174,Lim Tjhun Seng,126,20 Lorong 6 Geylang,91DAF06E5C750513,20200728214024,,,
103.862425383983,1.30963597847065,ibis budget Singapore Imperial,,contact@fragrancehotel.com,,208187,"QUAH TZE WEN, GLENN",74,28 Penhas Road,F9DCAA8EE0FE33DA,20200728214024,,,
103.901246641879,1.31149574993698,ibis budget Singapore Joo Chiat,,contact@fragrancehotel.com,,427485,Soh Shil Nie,90,219 Joo Chiat Road,A714BE3AA17C0048,20200728214024,,,
103.813874982995,1.26970676465938,ibis budget Singapore Mount Faber,,contact@fragrancehotel.com,,098838,SOH SHIL NIE,32,400 Telok Blangah Road,63EA282300EA0555,20200728214024,,,
103.879289173768,1.31156055920328,ibis budget Singapore Pearl,,contact@fragrancehotel.com,,398961,Soh Shil Fang Doreen,129,21 Lorong 14 Geylang,298ADD99651FDC1D,20200728214024,,,
103.881097098283,1.31223807766207,ibis budget Singapore Ruby,,contact@fragrancehotel.com,,398730,Tan Kwee Hiang,168,10 Lorong 20 Geylang,DDDC8B36643A87F7,20200728214024,,,
103.877769447217,1.31175754744813,ibis budget Singapore Sapphire,,contact@fragrancehotel.com,,399037,Lee Chou Hock,50,3 Lorong 10 Geylang,C81A4040BE3CF94D,20200728214024,,,
103.849948919677,1.30376527735541,ibis budget Singapore Selegie,,contact@fragrancehotel.com,,188329,Lee Chu Bing,95,183 Selegie Road,E202BBE7B2DD5440,20200728214024,,,
103.845545056163,1.32614785361247,Ibis Singapore Novena,,,,329543,Ang Poh Seow,241,6 Irrawaddy Road,D0FE7701584A2471,20200728214024,,,
103.852422678333,1.30096316425159,Ibis Singapore on Bencoolen,,H6657@accor.com,,189657,Lim Kah Eng,538,170 Bencoolen Street,CE29B88E3C75D0F3,20200728214024,,,
103.879294508881,1.33177053490393,ibis Styles Singapore on Macpherson,,H9411@accor.com,,368125,Tan Tong Wah,298,401 Macpherson Road,EC942851BCC0E27C,20200728214024,,,
103.854867046362,1.29846962637,InterContinental Singapore,,singapore@interconti.com,,188966,Lui Cheng Yan Josephine,403,80 Middle Road,2A3A1F6B7D2E42A0,20200728214024,,,
103.838551707065,1.28984102269144,InterContinental Singapore Robertson Quay,,info.sinic@ihg.com,,238909,Jessica Uekermann,225,1 NANSON ROAD,B7C8F6B52AC5451E,20200728214024,,,
103.845924101605,1.28298235047301,iStay.inn,,info@istayinn.com.sg,,058764,Rolfe Shamila,18,215A South Bridge Road,83F4C4AB10B4016A,20200728214024,,,
103.858520506324,1.30769755698718,J8 Hotel,,hq@j8hotel.com,,207606,ZHANG LIN,98,8 Townshend Road,15783D1C68E8A30B,20200728214024,,,
103.882775886651,1.31171183228565,Jade Hotel,,eddyswee2017@gmail.com,,399535,Martin Michael Hugh,36,18 Jalan Molek,74D42465E80EE909,20200728214024,,,
103.847932686159,1.28778717516192,Jayleen 1918 Hotel,,james@jayleen1918.com.sg,,059921,Lim So Geok,40,42 Carpenter Street,2816145AFF6E9E57,20200728214024,,,
103.847502570641,1.28871525038832,Jayleen Clarke Quay Hotel,,jayleenclarkequay@gmail.com,,059390,Joseph Lee Boon Leng,20,25 New Bridge Road,FB331A527CCF493F,20200728214024,,,
103.877460163672,1.311585869313,JH HOTEL,,anguskt@gmail.com,,399041,Suey Hueh King,42,8 LORONG 10 GEYLANG,A22CE6E9AA312BFF,20200728214024,,,
103.844455112735,1.29772283974699,Ji Hotel Orchard Singapore,,,,238485,SIAH WEI QIANG,81,11 PENANG LANE INNOTEL,66BD9D0F38062A37,20200728214024,,,
103.87880673682,1.31022734045131,Jin Dong Hotel,,,,399007,James Frederick Chong Kah Yean,33,33 Lorong 12 Geylang,D7209ADD65D85279,20200728214024,,,
103.873959999289,1.31118301196188,Joyfor Singapore,,joyfor.sg@gmail.com,,389226,James Federick Chong Kah Yean,17,135 Geylang Road,D3011666FCE5018B,20200728214024,,,
103.855516058723,1.29465290571138,JW Marriott Hotel Singapore South Beach,,jw.sinjw.contactus@marriott.com,,189763,CHEN ZHIQIONG,634,30 Beach Road,7A601D8BDE0C3241,20200728214024,,,
103.876502260862,1.30999424174174,K Hotel,,,,399199,Kay Wong Siew Lan,56,44 LORONG 6 GEYLANG,0BE037896191161F,20200728214024,,,
103.87754128742,1.31123084152033,K HOTEL 14,,,,399047,STEPHANE LOUIS FABREGOUL,45,14 LORONG 10 GEYLANG,3C17D7260B9E90A6,20200728214024,,,
103.877397285256,1.31067428643295,K Hotel 8,,,,399099,CAI WENCHAO,27,37 LORONG 8 GEYLANG,79215385E3D73497,20200728214024,,,
103.858144106984,1.31559230859372,K Space Inn 569,,,,218184,CAI WENCHAO,7,569 SERANGOON ROAD 60'S HOSTEL,732F33D9582A2253,20200728214024,,,
103.786403408371,1.28061805876119,K2 Guesthouse,,hello@k2guesthouse.com,,118146,CAI WENCHAO,24,15 SOUTH BUONA VISTA ROAD,4036C004B1F52E74,20200728214024,,,
103.833283334569,1.3063453359855,Grand Hyatt Singapore,,singapore.grand@hyatt.com,,228211,Sun Yi,677,10 Scotts Road,F55430449E2111B9,20200728214024,,,
103.904051128937,1.3043259893264,Grand Mercure Roxy Hotel,,H3610-FO16@accor.com,,428769,Ng Wei Yong,576,50 East Coast Road,FEC8882D56D728B2,20200728214024,,,
103.850123925268,1.29262894189275,Grand Park City Hall,,info.gpch@parkhotelgroup.com,,179809,Ng Wei Yeow,343,10 Coleman Street,ED8DF7F474499CE5,20200728214024,,,
103.836202012782,1.30310525131104,Grand Park Orchard,,infor.gpor@parkhotelgroup.com,,238857,Lee Fut Hua,308,270 Orchard Road,AC132E5E4B29870D,20200728214024,,,
103.854580698492,1.30462079031568,Haising Hotel,,hs@haising.com.sg,,208801,MANIMAHALAI D/O CHAKRAPANI,56,33A Jalan Besar,4EDEA0875C834A71,20200728214024,,,
103.861299879306,1.30271606708357,Hotel 81 - Heritage,,hotel81@hotel81.com.sg,,198985,Lim Choon Hua,64,71 Jalan Sultan Road,267ED972A920BA6C,20200728214024,,,
103.877447760285,1.31005583680827,Hotel 81 - Hollywood,,hotel81@hotel81.com.sg,,399121,Shi Thiam Tsai,112,61 Lorong 8 Geylang,626BFA3D228211B6,20200728214024,,,
103.876803320046,1.31278803988666,Hotel 81 - Joy,,hotel81@hotel81.com.sg,,388703,Siah Wei Bin,42,11 Lorong 11 Geylang,72C0948FE10F31ED,20200728214024,,,
103.878866751339,1.35420717029808,Hotel 81 - Kovan,,hotel81@hotel81.com.sg,,534636,Bryan Ong,89,"768 Upper Serangoon Road , # 02-01",80EC1F37159F6304,20200728214024,,,
103.862351670103,1.31075782011892,Hotel 81 - Lavender,,hotel81@hotel81.com.sg,,338716,"ONG TZE YAW, BRYAN",85,85 Lavender Street,0B72CAA885294B6C,20200728214024,,,
103.881497891026,1.31187964409268,Hotel 81 - Lucky,,hotel81@hotel81.com.sg,,398741,Bryan Ong,77,23 Lorong 20 Geylang,B53E1B57A75ED974,20200728214024,,,
103.878632309021,1.31098893424992,Hotel 81 - Princess,,hotel81@hotel81.com.sg,,399001,Chu Poh Yong,133,21 Lorong 12 Geylang,914BC2568D8E2EE1,20200728214024,,,
103.900510985539,1.31229179932804,Hotel 81 - Sakura,,hotel81@hotel81.com.sg,,427452,Chu Poh Yong,75,181 Joo Chiat Road,6C8B59EEC7DC4C3C,20200728214024,,,
103.850108265483,1.29918672172522,Hotel Bencoolen,,enquiries@hotelbencoolen.com,,189626,Chu Poh Yong,84,47 Bencoolen Street,6277BB040AB8740E,20200728214024,,,
103.847672305859,1.28709359119965,Hotel Bencoolen @ Hong Kong Street,,reservation.hkst@hotelbencoolen.com,,059685,Chu Poh Yong,33,47 Hongkong Street,ABEA22C7784B339F,20200728214024,,,
103.860266746951,1.30571322703811,Hotel Boss,,contact@hotelboss.sg,,199020,Chu Poh Yong,1500,500 Jalan Sultan,9EB09D9ED05A718D,20200728214024,,,
103.841931936895,1.30145985771336,Hotel Chancellor @ Orchard,,reservations@ghihotels.com.sg,,229635,Chu Poh Yong,488,28 Cavenagh Road,A82074A0C3C6B924,20200728214024,,,
103.897717224381,1.31564279286247,HOTEL CLASSIC,,classic@venuehotel.sg,,427353,Chu Poh Yong,75,12 JOO CHIAT ROAD,081CAC716BA140AA,20200728214024,,,
103.861729305374,1.30201280747959,Hotel Clover 33 Jalan Sultan,,enquiries@hotelclover.com,,198965,Chu Poh Yong,88,33 Jalan Sultan,CFA7AC67D4B77968,20200728214024,,,
103.8478409081,1.28743138227384,Hotel Clover 5 Hongkong Street,,enquiries@hotelclover5hongkongstreet.com,,059648,Chu Poh Yong,55,5 Hongkong Street,9DC21F77577BFA67,20200728214024,,,
103.906356982683,1.31352190950378,Malacca Hotel,,hotel@malacca.com.sg,,423988,Lee Sul Bi,29,97 Still Road,E379AE9CE4AB184D,20200728214024,,,
103.859584470771,1.30367081350441,Hotel Clover 769 North Bridge Road,,enquiries@hotelclover.com,,198737,Chu Poh Yong,35,769 North Bridge Road,4DFBFFE363728ED7,20200728214024,,,
103.848141341165,1.28754163889102,Hotel Clover The Arts,,,,058689,Chu Poh Yong,44,58 South Bridge Road,9862AB39F54F9ACE,20200728214024,,,
103.881864219755,1.31100479193402,Hotel Compass,,vinc_ngo@yahoo.com,,398693,Chu Poh Yong,49,36 Lorong 22 Geylang,264B1100583B674F,20200728214024,,,
103.847855885666,1.28834728764826,Hotel Conforto,,main@conforto.com.sg,,059905,Chu Poh Yong,22,16 Carpenter Street,3D9C995434200981,20200728214024,,,
103.845362056485,1.29581266426264,Hotel Fort Canning,,contact@hfcsingapore.com,,178881,Chu Poh Yong,86,11 Canning Walk,03AB1DCD588C572B,20200728214024,,,
103.882676232074,1.31170570900502,Hotel Fuji,,hotelfuji.pl@gmail.com,,399541,Chu Poh Yong,30,22 Jalan Molek,AAEA72E350653542,20200728214024,,,
103.851506467292,1.30091639007984,Hotel G Singapore,,gm@hotelgsingapore.com,,188980,Chu Poh Yong,308,200 MIDDLE ROAD BIG HOTEL,30B395B75BD30A79,20200728214024,,,
103.841767535762,1.3012946724269,Hotel Grand Central,,accommodations@grandcentral.com.sg,,229617,Chu Poh Yong,263,22 Cavenagh Road,ED92F6EC9B0D57C3,20200728214024,,,
103.904298453373,1.30511658100901,Hotel Indigo Singapore Katong,,,,428788,Herman Gay Teow Hua,131,"86 EAST COAST ROAD, # 01-01 KATONG SQUARE",F5982FEE9F8B7E1B,20200728214024,,,
103.839224077005,1.30050954183517,Hotel Jen Orchardgateway Singapore,,singaporeorchardgateway@hoteljen.com,,238858,Herman Gay Teow Hua,499,"277 Orchard Road , # 10-01",BE1CAD1F8E5FCE4D,20200728214024,,,
103.823912360589,1.3042705309298,Hotel Jen Tanglin Singapore,,hjts@hoteljen.com,,249716,Goh Kok Keong,565,1A Cuscaden Road,B5529ACF7E71E519,20200728214024,,,
103.840365853895,1.29726358007834,Lloyd's Inn,,mail@lloydsinn.com,,239091,PANG CHIN FATT,34,2 Lloyd Road,2C4F2C1BB860DF67,20200728214024,,,
103.880201803937,1.31152237256803,Lodge 41,,,,398877,Chen Chang Zheng,22,41 Lorong 16 Geylang,C7F5DB1257EBACBF,20200728214024,,,
103.84945862617,1.29157596080638,lyf Funan Singapore,,,,179370,"Chang Yao Wah, Herman",329,67 HILL STREET,7C29A0FE74F5223A,20200728214024,,,
103.84506021481,1.27368776927434,M Hotel Singapore,,enquiry.mhs@millenniumhotels.com,,079908,Yong Chung Yung,415,81 Anson Road,3FF220A62C0244C7,20200728214024,,,
103.837220928325,1.29086699266622,M Social Singapore,,,,238259,Ho Lean Imm,293,90 Robertson Quay,724241556D74B2E7,20200728214024,,,
103.858323986494,1.29066058376185,"Mandarin Oriental, Singapore",,,,039797,Danny Wong Hee Ling,527,5 Raffles Avenue Marina Square,D9935D843801D0CE,20200728214024,,,
103.858308388607,1.28233335098225,Marina Bay Sands Singapore,,inquiries@marinabaysands.com,,018956,Christian Andreas Hassing,2561,1 Bayfront Avenue,EE049C957FEE7290,20200728214024,,,
103.855499976965,1.30899651016985,Marrison @ Desker,,reservations@marrisonhotel.com,,209588,Ian Wilson,25,65 Desker Road,2AEAC1440E68FE5A,20200728214024,,,
103.857087531077,1.2978909223511,Marrison Hotel,,reservations@marrisonhotel.com,,189704,Lim Wen Pin Melvin,96,103 Beach Road,A95F3C242ED1A057,20200728214024,,,
103.844367354691,1.27915221128811,Maxwell Reserve,,,,078857,Raymond Lam,138,2 COOK STREET,EE242E7837359D2F,20200728214024,,,
103.854120522794,1.30392257669472,Mayo Inn,,admin@mayoinn.com,,208786,Raymond Lam,22,9 Jalan Besar,CCB8DFF72F502FC7,20200728214024,,,
103.860677173023,1.31139113939717,Meadows Hostel,,meadowshostel@gmail.com,,209178,Terrance Tay Yew Soon,6,7A Hamilton Road,9FCF493640F0B607,20200728214024,,,
103.853083051198,1.29963654287271,Mercure Singapore Bugis,,,,188973,Charlie Chia,395,122 MIDDLE ROAD MIDLINK PLAZA,4FE69DFC86242878,20200728214024,,,
103.854659348388,1.30474091460126,Meriton Hotel,,jackson@hotel165.sg,,208804,Kevin Glenn Bossino,40,43A Jalan Besar,3C69BB6022975058,20200728214024,,,
103.882461230625,1.31219823372169,Min Wah Hotel,,96ytlim@gmail.com,,398676,Teo Ai Choo,97,19 Lorong 22 Geylang,36C8F402D2BE4DA3,20200728214024,,,
103.857764750115,1.31507480508728,Mitraa Inn,,jvkmservices@singnet.com.sg,,218163,Lim Yeoh Toong,26,531 Serangoon Road,085514FAAF2569C9,20200728214024,,,
103.853524372799,1.30679667251442,MKS Backpackers' Hostel,,,,209757,Vijayalakshmi Jagadeesh,5,44 Cuff Road,303A28DB5ABB9B23,20200728214024,,,
103.858988963033,1.31544170610706,Moni Gallery Hostel,,enquiry@monigalleryhostel.com,,338795,Muthukumaran S/O Varthan,9,263 Lavender Street,231ECF362C9276E0,20200728214024,,,
103.857588989534,1.31594847999958,Mori Hostel,,,,218675,Muhammad Syafiee Bin Fidrishah,8,429 RACE COURSE ROAD MORI HOSTEL,FC2D3CDD88499B70,20200728214024,,,
103.855181687112,1.29586808458378,Naumi,,hm@naumihotel.com,,188396,LIEW SHIEN PEI,73,41 Seah Street,A6D1E2CA97671C03,20200728214024,,,
103.834075884942,1.28556429182439,New Cape Inn,,,,168891,Surya Kumar Jhunjhnuwala,76,3 SENG POH ROAD GREEN WORLD,7F64CEFD655C53C8,20200728214024,,,
103.768888272797,1.2922089251387,ibis budget Singapore West Coast,,contact@fragrancehotel.com,,118759,Ngiam Seng Ngiap,57,418 Pasir Panjang Road,0D3FCE0352178B82,20200728214024,,,
103.861412046112,1.30202391032311,Jamilla Boutique Inn,,,,199903,Tania Krassimirova Getzova,51,10 ALIWAL STREET 5FOOTWAY.INN PROJECT BUGIS,308D7CB144655CA7,20200728214024,,,
103.881122145385,1.3119564255497,Hotel 81 - Gold,,hotel81@hotel81.com.sg,,398738,SWEE WEIDI,98,20 Lorong 20 Geylang,412D36BEFC9B478F,20200728214024,,,
103.85103942858,1.32429128090849,New Orchid Hotel,,neworchidhotel@hotmail.com,,329777,Timothy Seah How Ming,68,347 Balestier Road,CF6430A3D1386D2F,20200728214024,,,
103.858259328995,1.31023794252736,New Society Backpacker,,newsoc259@gmail.com,,208934,Lim Lay Meng,4,259A Jalan Besar,2A49668750DFF7CA,20200728214024,,,
103.833551413429,1.28509462357436,Nostalgia Hotel,,frontdesk@hotelnostalgia.com.sg,,168727,Ho Chiuen Sheey,50,77 Tiong Bahru Road,711B8213182C3185,20200728214024,,,
103.844668942167,1.29149019698803,Novotel Singapore Clarke Quay,,info@novotelclarkequay.com.sg,,179031,LEE KOON HAI,403,177A River Valley Road,4D727805BFF47C64,20200728214024,,,
103.828399493406,1.31394109858619,Novotel Singapore On Stevens,,H9543-gm@accor.com,,257878,Ranjitha De Silva,254,"28 STEVENS ROAD, # 01-01",736907AADCD77FFC,20200728214024,,,
103.848408637443,1.27698070007554,OAKWOOD PREMIER AMTD SINGAPORE,,,,068809,Alan Keith Burrows,268,"6 SHENTON WAY, # 07-01 OUE DOWNTOWN",7205A553E31A183A,20200728214024,,,
103.844244859295,1.27585063042586,"Oasia Hotel Downtown, Singapore",,reseasy@fareast.com.sg,,079333,Kevin Glenn Bossino,314,100 Peck Seah Street,0A3AC604E7468622,20200728214024,,,
103.853842196119,1.31275667459011,One Farrer Hotel,,,,217562,Chai Khye Yeien,249,1 Farrer Park Station Road,F37D68998414ECC7,20200728214024,,,
103.838344779654,1.2465985797506,ONE15 Marina Club,,frontdesk@one15marina.com,,098497,Karamjit Kaur,26,11 Cove Drive,19932DA27E25A76C,20200728214024,,,
103.82816440606,1.30766860889292,Orchard Hotel Singapore,,,,238879,Gilbert Madhavan,656,442 Orchard Road,B8CCD00C25417574,20200728214024,,,
103.827739432245,1.3065751631695,"Orchard Rendezvous Hotel, Singapore",,info@orh.com.sg,,247905,Tay Teng Hock,388,1 Tanglin Road,A28ECA9D32423583,20200728214024,,,
103.843847231635,1.27693674003785,Orchid Hotel,,resv@orchidhotel.com.sg,,078867,Jean-Philippe Daniel Jacopin,272,1 Tras Link,1FE534AA0D85666D,20200728214024,,,
103.851820111255,1.29801057337893,Oxford Hotel,,reservation@oxfordhotel.com.sg,,188549,Brett Walker,134,218 Queen Street,A973ACA167405881,20200728214024,,,
103.860232906684,1.29943396113579,Pan Pacific Serviced Suites Beach Road,,,,199592,Chng Beng Siong,180,7500B Beach Road,9E6BED1E4A3E1B60,20200728214024,,,
103.851186611181,1.30359193738081,Parc Sovereign Hotel,,contact@parcsovereign.com,,189970,Mohamed Rafi Bin Hasan,172,175 Albert Street,63F02AB5A0D6DE7A,20200728214024,,,
103.877736767199,1.31192211161234,hotel ascendere pte ltd,,,,399035,Chu Poh Yong,25,1 LORONG 10 GEYLANG,0A3BE5866FE3BFC2,20200728214024,,,
103.847711703541,1.28746404866926,Hotel Clover 7 Hongkong Street,,enquiries@hotelclover.com,,059650,Chu Poh Yong,27,7 HONGKONG STREET,6E91038E51E7A827,20200728214024,,,
103.852228308446,1.29755505808723,Hotel Grand Pacific,,accounts@hotelgrandpacific.com.sg,,188018,Kay Wong Siew Lan,240,101 Victoria Street,B36B172EA3291DC1,20200728214024,,,
103.850729187175,1.30761951351103,Park 22 hotel Little India,,ngaungsan@whiteoakinv.com,,219184,Sun Yi,31,60 KERBAU ROAD,B6DD5FF9F066793A,20200728214024,,,
103.963024016311,1.33576405585821,Park Avenue Changi,,serenetan@uel.sg,,486015,Sun Yi,251,2 Changi Business Park Avenue 1,ABC57C3EC75B0120,20200728214024,,,
103.788347378512,1.30535120421258,Park Avenue Rochester,,serenetan@uel.sg,,138637,NG AUNG SAN,351,31 Rochester Drive,762D0E2DF8C2314D,20200728214024,,,
103.805370079297,1.28757994526013,Park Hotel Alexandra,,info.phal@parkhotelgroup.com,,159972,Sun Li Jing @ Ryan Sun,442,323 Alexandra Road Alexandra Central,54DE4BD687B5EC6B,20200728214024,,,
103.842327428168,1.29154596321777,Park Hotel Clarke Quay,,info.phcq@parkhotelgroup.com,,237983,Sun Li Jing @ Ryan Sun,340,1 Unity Street,E2C9B43E0EF21DD8,20200728214024,,,
103.854748159228,1.31198097077815,PARK HOTEL FARRER PARK,,,,217564,Andrew Craig Donadel,300,10 FARRER PARK STATION ROAD FARRER SQUARE,EB1C5A78198F2B82,20200728214024,,,
103.844443322367,1.28808355052563,Park Regis Singapore,,gmprsi@parkregissingapore.com,,058268,Lim Kang Ling,202,23 Merchant Road,604959AAAFD1EBFC,20200728214024,,,
103.857007341008,1.29145525906521,"PARKROYAL COLLECTION  Marina Bay, Singapore",,,,039594,Chua Chek Ngoo,575,6 RAFFLES BOULEVARD MARINA SQUARE,ADBAF9D28A3246C7,20200728214024,,,
103.846290282213,1.28563913664569,"PARKROYAL Collection Pickering, Singapore",,,,058289,Lim Min Wee Ernest,367,3 Upper Pickering Street,E9C6C11C6F7CED56,20200728214024,,,
103.770167551417,1.29207833471118,Pasir Panjang Inn,,ppinn@pacific.net.sg,,118741,Lim Sook Tiang,54,404 Pasir Panjang Road,ACE2FE4B4C9F3F91,20200728214024,,,
103.849820409422,1.29194591965028,Peninsula.Excelsior Hotel,,enquiries@ytchotels.com.sg,,179805,Ang Poh Seow,591,5 Coleman Street,BF8C3F59393F1AA9,20200728214024,,,
103.853597393505,1.31119377982074,Penta Hotel,,booking@pentahotel.com.sg,,219894,Wong Liang Tong,48,33 Birch Road,1CBC78FF231CE724,20200728214024,,,
103.853212740709,1.30477735433313,Perak Hotel,,perlodge@singnet.com.sg,,208133,Lim Hwee Meang Rachel,32,12 Perak Road,BBB3B69133C1EFB5,20200728214024,,,
103.860208871905,1.31190914918039,Pine Hostel @ Lavender,,pinehostelsg@gmail.com,,207566,Tong Kok Chiang,7,153A TYRWHITT ROAD QINAN BUILDING,89CA0A7A0A0E40D2,20200728214024,,,
103.844285506043,1.28423977707313,Porcelain Hotel,,enquiry@porcelainhotel.com,,059526,Hu Yingna,138,48 Mosque Street,6007287FEDC07AA0,20200728214024,,,
103.852519737987,1.3200518654597,Quality Hotel Marlow,,dm@qualityhotelmarlow.com.sg,,329926,Richard Tan Meng See,240,201 Balestier Road,024A3E93459D3090,20200728214024,,,
103.854068347721,1.29509740338278,Raffles Hotel Singapore,,singapore@raffles.com,,189673,Christian Westbeld,115,1 Beach Road,8788A5F4CB8744EF,20200728214024,,,
103.845399528928,1.28082633621452,The Scarlet Hotel,,reservations@thescarlethotels.com,,069333,Choo Sin How,80,33 Erskine Road,26553501FB3D089E,20200728214024,,,
103.839843127647,1.28771626958407,The Seacare Hotel,,reservations@theseacarehotel.com.sg,,169875,"Leong Mun Choy, Bernard",103,52 Chin Swee Road,52CE0FD2DAE2C709,20200728214024,,,
103.845656808105,1.28341894026954,The Southbridge Hotel,,admin@southbridge.com,,058759,Ong Shu Xian Charmaine,47,210 South Bridge Road,BBB017838C2E0844,20200728214024,,,
103.860975921585,1.30316598668086,The Sultan,,info@thesultan.com.sg,,199002,Harpreet Kaur Bedi,60,101 Jalan Sultan,BFB7ECAFB60BA49D,20200728214024,,,
103.858401651016,1.30689059540428,The Vagabond Club,,accounts@garchahotels.com,,207630,Tarun Kalra,41,39 Syed Alwi Road,CE5B3EE1FBEE2A6C,20200728214024,,,
103.837472221716,1.28920183768185,The Warehouse Hotel,,,,169628,Lance Joseph Ourednik,37,320 HAVELOCK ROAD,53F718E1927C9371,20200728214024,,,
103.861714993221,1.31033177948249,Traveller@sg,,,,208559,TAN CHOR KHENG,7,111H King George's Avenue,F0F5D28020CA7D0E,20200728214024,,,
103.823792222833,1.26633679754561,Travelodge Harbourfront Singapore,,,,098828,Tan Kee Chong Derrick,334,50 TELOK BLANGAH ROAD BAY HOTEL SINGAPORE,FF47311E7E28EE09,20200728214024,,,
103.858395163567,1.30262934394456,TREE IN LODGE HOSTEL,,,,199137,Ng Lip Sek,5,5 JALAN PINANG CORAL HOSTEL,18A4539448404842,20200728214024,,,
103.883723595489,1.31612667222578,Urban Hostel,,,,388189,Edmund Yip Chak Mun,11,67A Lorong 27 Geylang,5296EC96508F3670,20200728214024,,,
103.850763169012,1.29894385553217,V Hotel Bencoolen,,vhotel@vhotel.sg,,189627,Chu Poh Yong,272,48 Bencoolen Street,6C886F3147FDBEF6,20200728214024,,,
103.862525582449,1.3078092747122,V Hotel Lavender,,vhotel@vhotel.sg,,208767,Chu Poh Yong,888,70 Jellicoe Road,942397A2D84CE378,20200728214024,,,
103.853270441013,1.32124006979661,Value Hotel - Balestier,,valuehotel@valuehotel.com.sg,,329684,Chu Poh Yong,208,218 Balestier Road,EC3E7E349FA619EE,20200728214024,,,
103.902428918272,1.30957900907828,Venue Hotel,,contact@venuehotel.sg,,427556,Loo Wai Peng,81,305 Joo Chiat Road,131753C35119B747,20200728214024,,,
103.852442326555,1.29709985440985,Victoria Hotel,,reservations@victoriana.sg,,188016,Terence Govinden,89,87 VICTORIA STREET VICTORIA HOTEL,76D40E767B2DFAD3,20200728214024,,,
103.800885641861,1.268937683637,Villa Samadhi Singapore,,,,119193,OCASIO JOSE ALBERTO,20,20 LABRADOR VILLA ROAD,38719C97BB8C5146,20200728214024,,,
103.85071667183,1.30390260082807,Village Hotel Albert Court,,info.vhac@fareast.com.sg,,189971,Gill Ishwinder,210,180 Albert Street,FB48D6443CA4CA1F,20200728214024,,,
103.857668954773,1.30192812751591,Village Hotel Bugis,,info.vhb@fareast.com.sg,,188061,Gill Ishwinder Singh,393,390 Victoria Street,8E7B1395890FE3B1,20200728214024,,,
103.986061074378,1.3904021092424,Village Hotel Changi,,info.vhc@fareast.com.sg,,508502,Christina Wendy Lee,380,1 Netheravon Road,D54C653477FDD5A9,20200728214024,,,
103.902912251967,1.30377936120631,Village Hotel Katong,,info.vhk@fareast.com.sg,,449536,HO TING CHEE,229,25 Marine Parade Road,EA762650B10291D9,20200728214024,,,
103.859699504459,1.31322431873699,Kam Leng Hotel,,reservations@kamleng.com,,209001,KAY SIEW HWA,70,383 Jalan Besar,90F5301B81318D73,20200728214024,,,
103.859681427203,1.30078636753127,KAMPONG @ ARAB,,,,199745,Hu Yingna,6,48 ARAB STREET SHOPHOUSE THE SOCIAL HOSTEL,3639B3A359D033A6,20200728214024,,,
103.836340959124,1.3020645045383,Mandarin Orchard Singapore,,orchard@meritushotels.com,,238867,LIM SIONG THONG,1077,333 Orchard Road,7FB2435284A42C3A,20200728214024,,,
103.876240340591,1.31143553463831,Kim Tian (Star) Hotel,,,,399166,Manchharam Ashish,43,4 Lorong 6 Geylang,108A3FBCF83A29AC,20200728214024,,,
103.876202869193,1.31016069700456,Kim Tian Hotel (Han),,,,399281,Steven Han How Chye,48,29 Lorong 4 Geylang,5286CCA6CD77626E,20200728214024,,,
103.877802903174,1.3112646112522,La Mode (Sophia),,,,399050,Steven Han How Chye,35,17 Lorong 10 Geylang,DAC543AEF26B267C,20200728214024,,,
103.883130632629,1.31301909204336,Lai Ming Hotel,,otl@laiming.com.sg,,389396,SUN YI,15,432  Geylang Road,D84392406D741F8C,20200728214024,,,
103.88287775601,1.31285242907657,Lai Ming Hotel Cosmoland,,otl@laiminghotel.com.sg,,389395,Teng Ai Fong,54,424 Geylang Road,65C3A99FCA6A4A32,20200728214024,,,
103.81955756883,1.25329365829851,"Le Meridien Singapore, Sentosa",,,,098679,Ong Tong Liang,191,"23 BEACH VIEW LE MERIDIEN SINGAPORE, SENTOSA",601E97AE91C6EFB9,20200728214024,,,
103.877164397644,1.31181053676029,LEX HOTEL (LORONG 8),,,,399073,Ong Tong Liang,41,1 LORONG 8 GEYLANG,AE0C66603D6640C4,20200728214024,,,
103.834290657294,1.28487238567456,Link Hotel,,info@linkhotel.com.sg,,168733,Harman Rachael Robyn,274,50 Tiong Bahru Road,DB8D4F173F74E102,20200728214024,,,
103.835187499512,1.30692538671184,York Hotel,,enquiry@yorkhotel.com.sg,,228516,Muhammad Daniel Manivasagam,407,21 Mount Elizabeth,4CDA841ED8708A8F,20200728214024,,,
103.831347094612,1.30634429879401,YOTEL Singapore Orchard Road,,brendan.daly@yotel.com,,238904,,610,366 ORCHARD ROAD,6548D63C4F30D046,20200728214024,,,
103.989077555194,1.36034099671656,YotelAir Singapore Changi Airport,,jca.finance@yotel.com,,819666,,130,"78 AIRPORT BOULEVARD, # 04-280",F81397E04E67D3C0,20200728214024,,,
103.878050332523,1.3131635740799,ZEN Rooms 1515,,,,388607,,78,15 LORONG 15 GEYLANG,D81433D9CEF13F65,20200728214024,,,
103.875894248569,1.3132565842406,Zen Rooms Oasis,,,,387416,,46,56 SIMS AVENUE,2247F2C10D3E9E82,20200728214024,,,
103.853983386178,1.30375424119095,Hotel 81 - Rochor,,hotel81@hotel81.com.sg,,208785,Chu Poh Yong,87,5 Jalan Besar,5490849D7416D335,20190620111820,,,
103.852504389911,1.32334493742066,Value Hotel - Nice,,valuehotel@valuehotel.com.sg,,329738,Chu Poh Yong,63,302 Balestier Road,31D11432E3C9F122,20190620111820,,,
103.849798670544,1.30437833815954,Q Loft Hotels@Mackenzie,,,,228677,Tan Tian Mei,40,15 Mackenzie Road,F4F09F30F0E3544F,20190705110220,,,
103.855657430547,1.31053024250151,PARKROYAL on Kitchener Road,,enquiry@kr.parkroyalhotels.com,,208533,"Ong Tun Cheik, Richard",532,181 Kitchener Road,268232B7AF8EA3D1,20190620111820,,,
103.853723617758,1.30536816987403,Snooze Inn Pte Ltd,,,,209518,TSAI SHI SHYUAN,23,43 DICKSON ROAD PHIL INN,F0FF75DCB0A99F58,20190620111820,,,
103.842719933396,1.3269557412414,Value Hotel - Thomson,,valuehotel@valuehotel.com.sg,,329901,Chu Poh Yong,366,592 Balestier Road,A60A2481DE2E2ACB,20190620111820,,,
103.846374260603,1.32710813170856,Ramada Singapore at Zhongshan Park,,info@ramadasingapore.com,,329983,Tony John Cousens,382,16 Ah Hood Road,19755CEBC868778A,20190620111820,,,
103.862164062967,1.31106785024407,Hotel 81 - Violet,,hotel81@hotel81.com.sg,,338722,Chu Poh Yong,49,97 Lavender Street,14CB66640F998417,20190620111820,,,
103.877277745979,1.31119116358172,Hotel 81 - Orchid,,hotel81@hotel81.com.sg,,399090,Chu Poh Yong,182,21 Lorong 8 Geylang,2D61777F80DEAC1D,20190620111820,,,
103.834966686156,1.28336484066759,Hotel 81 - Osaka,,hotel81@hotel81.com.sg,,169753,Chu Poh Yong,74,1 Eng Hoon Street,44F052ED4506294E,20190620111820,,,
103.891617685858,1.32208820086546,Aqueen Hotel - Paya Lebar,,,,409180,Chan Boon Tat,162,33 Jalan Afifi,112720F786F4FD2B,20190620111820,,,
103.897420527925,1.31568836964855,Hotel 81 - Tristar,,hotel81@hotel81.com.sg,,424780,Chu Poh Yong,116,1 Onan Road,64E0BD023BAB5C2C,20190620111820,,,
103.849884117871,1.3032844053482,Hotel 81 - Selegie,,hotel81@hotel81.com.sg,,188318,Chu Poh Yong,81,161 Selegie Road,F2B7F837998E434F,20190620111820,,,
103.855722993909,1.29678178848365,Populous Hotel,,info@populoushotel.com,,188933,Raymond Lam,80,23 MIDDLE ROAD,C90C004579C09877,20190620111820,,,
103.878270058693,1.31368275668813,Hotel 81 - Spring,,hotel81@hotel81.com.sg,,388619,Chu Poh Yong,32,22 Lorong 15 Geylang,F97BF4D688D2B64F,20190620111820,,,
103.858786331918,1.31571664407736,The Hive,,info@thehivesg.com,,218223,Bian Haiqiu,10,624 Serangoon Road,915876CC79FC952A,20190620111820,,,
103.880119073255,1.31179140354756,Hotel 81 - Palace,,hotel81@hotel81.com.sg,,398867,Chu Poh Yong,192,25 Lorong 16 Geylang,6FD6C20143A9880D,20190620111820,,,
103.859775934817,1.31379680423506,The Noble Hotel,,,,209012,Tay Hongwei Alinilson,30,407 JALAN BESAR THE NOBLE HOTEL,121557C245EE5600,20190620111820,,,
103.880860523551,1.31160600473177,Hotel 81 - Star,,hotel81@hotel81.com.sg,,398828,Chu Poh Yong,207,31 Lorong 18 Geylang,A904805F1B766828,20190620111820,,,
103.860546413684,1.30105228944496,The Pod,,info@thepodcapsulehotel.sg,,199552,Steven Lee Ngiap Hui,15,"289 Beach Road  , # 03-01",4C641C6587C8C398,20190620111820,,,
103.85890444877,1.31064624214852,BEAT. Sports Hostel,,sports@beathostel.co,,208953,Philip Cyril Raj,13,290A Jalan Besar,FEA8E458DDBE8A26,20200728214024,,,
103.84369850009,1.27595845561159,Carlton City Hotel Singapore,,douglas.glen@carltoncity.sg,,078862,Fernando Gibaja Garcia-Zarco,386,1 Gopeng Street,552A51C526FEA2F6,20200728214024,,,
103.843165090044,1.32059476707049,Courtyard By Marriott Singapore Novena,,,,329568,Heinrich Grafe,250,"99 IRRAWADDY ROAD, # 22-00 ROYAL SQUARE AT NOVENA",5610EBA08738A085,20200728214024,,,
103.847365855383,1.32697770059675,Days Hotel Singapore At Zhongshan Park,,info@dayshotelsingapore.com,,329133,Choa Fu Seng,405,1 Jalan Rajah,C56F326E8D61A13D,20200728214024,,,
103.980568397632,1.38894206635745,GALLOP CHANGI BEACH RESORT,,,,509671,SUN YI,40,49 HENDON ROAD,9D3E18D1863A5986,20200728214024,,,
103.83410906863,1.30822214594427,Goodwood Park Hotel,,enquiries@goodwoodparkhotel.com.sg,,228221,Muzafiru Bin Othman,233,22 Scotts Road,0CB42F3C42C989CF,20200728214024,,,
103.853069621772,1.32170313863895,Hoover Hotel,,,,329706,Audrey Binti Musa,42,"246 Balestier Road , # 02-01",EFBE8B5CBA40ABB1,20200728214024,,,
103.844098495279,1.28456367163908,Hotel 81 - Chinatown,,hotel81@hotel81.com.sg,,059418,Alexandra Pauline Kloprogge,95,181 New Bridge Road,6BB3C9FBED599342,20200728214024,,,
103.843903509412,1.28344954192642,5footway.inn Project Chinatown 1,,frontdesk.chinatown1@gmail.com,,059222,Yei Maung,20,63A Pagoda Street,2F3E91ACDE8058F8,20200728214024,,,
103.851868266107,1.30736540957505,AQUEEN Heritage Hotel - Little India,,,,219962,Manchharam Ashish,70,22 BELILIOS LANE AQUEEN HERITAGE HOTEL - LITTLE INDIA,29AF37AA2B6BED1A,20200728214024,,,
103.854059862488,1.3050887952847,RedDoorz Plus @ Little India,,,,209507,Heng Kim Boon,80,"23 DICKSON ROAD, # 1-01-01 MOON 23 HOTEL",9716326679FBE8FD,20200728214024,,,
103.855672473307,1.30922887156542,Royal India Hotel,,sales@royalindiahotel.com,,207667,Li Xiaojia,43,"88 Syed Alwi Road , # 01-02",7C0288ACFE0127DF,20200728214024,,,
103.845070104293,1.2769051570011,Sofitel Singapore City Centre,,,,078885,Wouter Frank De Graaf,223,9 WALLICH STREET,877335F17C589862,20200728214024,,,
103.839076191393,1.29077754111531,Studio M Hotel,,enquiry.smh@millenniumhotels.com,,238910,Rainer Tenius,360,3 Nanson Road,F03EF56BE3D4019B,20200728214024,,,
103.820644196531,1.25291730866453,THE BARRACKS HOTEL SENTOSA,,,,099567,Shaik Mohamed S/O Mohamed Abdul Jaleel,40,2 GUNNER LANE,414D012C42EECC20,20200728214024,,,
103.85213309311,1.29752625749619,Hotel Royal @ Queens,,info@royalqueens.com.sg,,188553,Amrani Othmane,231,12 Queen Street,DD88D65ECFE0728C,20200728214024,,,
103.882458725423,1.31205758973578,Kim Tian Hotel,,,,398678,Steven Han How Chye,47,21 Lorong 22 Geylang,CFBF74093BAC96B4,20190620111820,,,
103.881861947743,1.31116645434913,Reddoorz @ Aljunied,,,,398691,AMIT SABERWAL,42,34 LORONG 22 GEYLANG LEMON GRASS HOTEL,003525F687D38DDA,20190620111820,,,
103.912040454705,1.30869695647047,RedDoorz near Marine Parade Central,,,,428996,AMIT SABERWAL,62,400 EAST COAST ROAD GARDEN TERRACE HOTEL,4DB366809E651AA1,20190620111820,,,
103.977931029385,1.38859258335421,Raintr33 Hotel Singapore,,,,509673,Chong Kwei Fun,50,33 Hendon Road,0C525A90AA042DDC,20190620111820,,,
